[{"OBJECT_NAME":"STARLINK-36707","OBJECT_ID":"2026-025P","EPOCH":"2026-03-06T06:06:49.313088","MEAN_MOTION":15.75325851,"ECCENTRICITY":7.726e-5,"INCLINATION":97.2848,"RA_OF_ASC_NODE":176.7289,"ARG_OF_PERICENTER":132.8286,"MEAN_ANOMALY":227.3045,"EPHEMERIS_TYPE":0,"CLASSIFICATION_TYPE":"U","NORAD_CAT_ID":67706,"ELEMENT_SET_NO":999,"REV_AT_EPOCH":540,"BSTAR":0.0025623186,"MEAN_MOTION_DOT":0.00403044,"MEAN_MOTION_DDOT":0},{"OBJECT_NAME":"STARLINK-36645","OBJECT_ID":"2026-025Q","EPOCH":"2026-03-06T06:40:52.095936","MEAN_MOTION":15.7520994,"ECCENTRICITY":7.869e-5,"INCLINATION":97.2851,"RA_OF_ASC_NODE":176.6968,"ARG_OF_PERICENTER":39.3582,"MEAN_ANOMALY":320.774,"EPHEMERIS_TYPE":0,"CLASSIFICATION_TYPE":"U","NORAD_CAT_ID":67707,"ELEMENT_SET_NO":999,"REV_AT_EPOCH":540,"BSTAR":0.0010372885,"MEAN_MOTION_DOT":0.00157611,"MEAN_MOTION_DDOT":0},{"OBJECT_NAME":"STARLINK-36287","OBJECT_ID":"2026-025R","EPOCH":"2026-03-06T06:00:02.000160","MEAN_MOTION":15.75157738,"ECCENTRICITY":0.00016674,"INCLINATION":97.285,"RA_OF_ASC_NODE":176.7548,"ARG_OF_PERICENTER":68.2963,"MEAN_ANOMALY":335.1271,"EPHEMERIS_TYPE":0,"CLASSIFICATION_TYPE":"U","NORAD_CAT_ID":67708,"ELEMENT_SET_NO":999,"REV_AT_EPOCH":546,"BSTAR":0.00049352344,"MEAN_MOTION_DOT":0.00074021,"MEAN_MOTION_DDOT":0},{"OBJECT_NAME":"STARLINK-36698","OBJECT_ID":"2026-025S","EPOCH":"2026-03-06T06:00:02.000160","MEAN_MOTION":15.75146132,"ECCENTRICITY":0.00015843,"INCLINATION":97.2858,"RA_OF_ASC_NODE":176.7741,"ARG_OF_PERICENTER":68.5499,"MEAN_ANOMALY":18.8622,"EPHEMERIS_TYPE":0,"CLASSIFICATION_TYPE":"U","NORAD_CAT_ID":67709,"ELEMENT_SET_NO":999,"REV_AT_EPOCH":530,"BSTAR":0.00078234357,"MEAN_MOTION_DOT":0.00117964,"MEAN_MOTION_DDOT":0},{"OBJECT_NAME":"STARLINK-36344","OBJECT_ID":"2026-025T","EPOCH":"2026-03-06T06:00:43.284672","MEAN_MOTION":15.75343733,"ECCENTRICITY":0.00017223,"INCLINATION":97.2843,"RA_OF_ASC_NODE":176.7346,"ARG_OF_PERICENTER":136.4996,"MEAN_ANOMALY":223.6406,"EPHEMERIS_TYPE":0,"CLASSIFICATION_TYPE":"U","NORAD_CAT_ID":67710,"ELEMENT_SET_NO":999,"REV_AT_EPOCH":541,"BSTAR":0.0025668507,"MEAN_MOTION_DOT":0.00404094,"MEAN_MOTION_DDOT":0},{"OBJECT_NAME":"STARLINK-36687","OBJECT_ID":"2026-025U","EPOCH":"2026-03-06T07:06:31.925376","MEAN_MOTION":15.80870832,"ECCENTRICITY":0.00021644,"INCLINATION":97.2852,"RA_OF_ASC_NODE":176.8238,"ARG_OF_PERICENTER":358.701,"MEAN_ANOMALY":1.4252,"EPHEMERIS_TYPE":0,"CLASSIFICATION_TYPE":"U","NORAD_CAT_ID":67711,"ELEMENT_SET_NO":999,"REV_AT_EPOCH":542,"BSTAR":0.0010447993,"MEAN_MOTION_DOT":0.00205288,"MEAN_MOTION_DDOT":0},{"OBJECT_NAME":"STARLINK-36705","OBJECT_ID":"2026-025V","EPOCH":"2026-03-06T06:12:24.663456","MEAN_MOTION":15.75315574,"ECCENTRICITY":9.776e-5,"INCLINATION":97.2859,"RA_OF_ASC_NODE":176.7196,"ARG_OF_PERICENTER":100.2586,"MEAN_ANOMALY":259.8789,"EPHEMERIS_TYPE":0,"CLASSIFICATION_TYPE":"U","NORAD_CAT_ID":67712,"ELEMENT_SET_NO":999,"REV_AT_EPOCH":540,"BSTAR":0.0022827635,"MEAN_MOTION_DOT":0.00356927,"MEAN_MOTION_DDOT":0},{"OBJECT_NAME":"STARLINK-36708","OBJECT_ID":"2026-025W","EPOCH":"2026-03-06T07:09:56.872224","MEAN_MOTION":15.67528956,"ECCENTRICITY":0.0001322,"INCLINATION":97.2853,"RA_OF_ASC_NODE":176.823,"ARG_OF_PERICENTER":83.0346,"MEAN_ANOMALY":277.1065,"EPHEMERIS_TYPE":0,"CLASSIFICATION_TYPE":"U","NORAD_CAT_ID":67713,"ELEMENT_SET_NO":999,"REV_AT_EPOCH":541,"BSTAR":-0.0088818655,"MEAN_MOTION_DOT":-0.00867126,"MEAN_MOTION_DDOT":0},{"OBJECT_NAME":"STARLINK-36702","OBJECT_ID":"2026-025X","EPOCH":"2026-03-06T06:00:02.000160","MEAN_MOTION":15.75063183,"ECCENTRICITY":7.61e-5,"INCLINATION":97.2859,"RA_OF_ASC_NODE":176.7931,"ARG_OF_PERICENTER":60.5141,"MEAN_ANOMALY":72.9085,"EPHEMERIS_TYPE":0,"CLASSIFICATION_TYPE":"U","NORAD_CAT_ID":67714,"ELEMENT_SET_NO":999,"REV_AT_EPOCH":509,"BSTAR":0.0018366647,"MEAN_MOTION_DOT":0.00281509,"MEAN_MOTION_DDOT":0},{"OBJECT_NAME":"STARLINK-36718","OBJECT_ID":"2026-025Y","EPOCH":"2026-03-06T06:44:53.794752","MEAN_MOTION":15.80987205,"ECCENTRICITY":0.00010518,"INCLINATION":97.2862,"RA_OF_ASC_NODE":176.8433,"ARG_OF_PERICENTER":95.7163,"MEAN_ANOMALY":264.4225,"EPHEMERIS_TYPE":0,"CLASSIFICATION_TYPE":"U","NORAD_CAT_ID":67715,"ELEMENT_SET_NO":999,"REV_AT_EPOCH":541,"BSTAR":0.0017945599,"MEAN_MOTION_DOT":0.00361034,"MEAN_MOTION_DDOT":0},{"OBJECT_NAME":"STARLINK-36715","OBJECT_ID":"2026-025Z","EPOCH":"2026-03-06T06:47:51.857376","MEAN_MOTION":15.80935017,"ECCENTRICITY":0.00012748,"INCLINATION":97.2865,"RA_OF_ASC_NODE":176.843,"ARG_OF_PERICENTER":54.9262,"MEAN_ANOMALY":305.2126,"EPHEMERIS_TYPE":0,"CLASSIFICATION_TYPE":"U","NORAD_CAT_ID":67716,"ELEMENT_SET_NO":999,"REV_AT_EPOCH":541,"BSTAR":0.0016293459,"MEAN_MOTION_DOT":0.00325658,"MEAN_MOTION_DDOT":0},{"OBJECT_NAME":"STARLINK-36385","OBJECT_ID":"2026-025AA","EPOCH":"2026-03-06T06:56:52.342080","MEAN_MOTION":15.80863149,"ECCENTRICITY":0.00024699,"INCLINATION":97.2859,"RA_OF_ASC_NODE":176.833,"ARG_OF_PERICENTER":351.3086,"MEAN_ANOMALY":8.8139,"EPHEMERIS_TYPE":0,"CLASSIFICATION_TYPE":"U","NORAD_CAT_ID":67717,"ELEMENT_SET_NO":999,"REV_AT_EPOCH":541,"BSTAR":0.0010506344,"MEAN_MOTION_DOT":0.00206394,"MEAN_MOTION_DDOT":0},{"OBJECT_NAME":"CZ-2F DEB","OBJECT_ID":"2026-024E","EPOCH":"2026-03-05T22:33:30.313152","MEAN_MOTION":15.23940381,"ECCENTRICITY":0.02369853,"INCLINATION":50.3188,"RA_OF_ASC_NODE":37.1031,"ARG_OF_PERICENTER":265.1895,"MEAN_ANOMALY":92.197,"EPHEMERIS_TYPE":0,"CLASSIFICATION_TYPE":"U","NORAD_CAT_ID":67718,"ELEMENT_SET_NO":999,"REV_AT_EPOCH":406,"BSTAR":0.0040707196,"MEAN_MOTION_DOT":0.00230629,"MEAN_MOTION_DDOT":0},{"OBJECT_NAME":"CZ-2F DEB","OBJECT_ID":"2026-024F","EPOCH":"2026-03-06T06:58:59.906496","MEAN_MOTION":15.02592523,"ECCENTRICITY":0.03144266,"INCLINATION":49.793,"RA_OF_ASC_NODE":38.2974,"ARG_OF_PERICENTER":257.8342,"MEAN_ANOMALY":98.7221,"EPHEMERIS_TYPE":0,"CLASSIFICATION_TYPE":"U","NORAD_CAT_ID":67719,"ELEMENT_SET_NO":999,"REV_AT_EPOCH":373,"BSTAR":0.0037309499,"MEAN_MOTION_DOT":0.00155555,"MEAN_MOTION_DDOT":0},{"OBJECT_NAME":"CZ-2F DEB","OBJECT_ID":"2026-024G","EPOCH":"2026-03-06T06:32:34.902816","MEAN_MOTION":14.99857101,"ECCENTRICITY":0.03253353,"INCLINATION":49.8327,"RA_OF_ASC_NODE":38.9711,"ARG_OF_PERICENTER":253.8678,"MEAN_ANOMALY":102.6229,"EPHEMERIS_TYPE":0,"CLASSIFICATION_TYPE":"U","NORAD_CAT_ID":67720,"ELEMENT_SET_NO":999,"REV_AT_EPOCH":404,"BSTAR":0.0035368585,"MEAN_MOTION_DOT":0.0014319,"MEAN_MOTION_DDOT":0},{"OBJECT_NAME":"STARLINK-36772","OBJECT_ID":"2026-026A","EPOCH":"2026-03-06T06:00:02.000160","MEAN_MOTION":15.60779861,"ECCENTRICITY":0.00015231,"INCLINATION":97.2837,"RA_OF_ASC_NODE":119.708,"ARG_OF_PERICENTER":53.462,"MEAN_ANOMALY":26.6636,"EPHEMERIS_TYPE":0,"CLASSIFICATION_TYPE":"U","NORAD_CAT_ID":67721,"ELEMENT_SET_NO":999,"REV_AT_EPOCH":476,"BSTAR":-0.026734547,"MEAN_MOTION_DOT":-0.01958123,"MEAN_MOTION_DDOT":0}]
